COSMOS 2251 DEB         
1 34124U 93036KV  17345.86334484  .00001878  00000-0  43541-3 0  9999
2 34124  74.0268 151.4135 0018756 218.6292 141.3531 14.55665379464889
